{"fetched_at":"2026-07-17T17:37:53.421Z","source":"https://celestrak.org/NORAD/elements/gp.php?GROUP=oneweb&FORMAT=JSON","constellation":"oneweb","records":[{"OBJECT_NAME":"ONEWEB-0371","OBJECT_ID":"2021-090U","EPOCH":"2026-07-17T06:56:20.884704","CLASSIFICATION_TYPE":"U","MEAN_MOTION":13.19725832,"ECCENTRICITY":0.00021071,"INCLINATION":87.9193,"RA_OF_ASC_NODE":298.974,"ARG_OF_PERICENTER":101.7671,"MEAN_ANOMALY":258.3698,"EPHEMERIS_TYPE":0,"NORAD_CAT_ID":49297,"ELEMENT_SET_NO":999,"REV_AT_EPOCH":23042,"BSTAR":0.00019894069,"MEAN_MOTION_DOT":9.3e-7,"MEAN_MOTION_DDOT":0},{"OBJECT_NAME":"ONEWEB-0372","OBJECT_ID":"2021-090V","EPOCH":"2026-07-17T03:53:04.933824","CLASSIFICATION_TYPE":"U","MEAN_MOTION":13.20769998,"ECCENTRICITY":0.00021135,"INCLINATION":87.9183,"RA_OF_ASC_NODE":268.4697,"ARG_OF_PERICENTER":98.9643,"MEAN_ANOMALY":261.173,"EPHEMERIS_TYPE":0,"NORAD_CAT_ID":49298,"ELEMENT_SET_NO":999,"REV_AT_EPOCH":23379,"BSTAR":0.00010837846,"MEAN_MOTION_DOT":5.7e-7,"MEAN_MOTION_DDOT":0},{"OBJECT_NAME":"ONEWEB-0373","OBJECT_ID":"2021-090W","EPOCH":"2026-07-16T17:35:05.896896","CLASSIFICATION_TYPE":"U","MEAN_MOTION":13.20772869,"ECCENTRICITY":0.000208,"INCLINATION":87.9185,"RA_OF_ASC_NODE":268.5544,"ARG_OF_PERICENTER":96.0097,"MEAN_ANOMALY":264.1274,"EPHEMERIS_TYPE":0,"NORAD_CAT_ID":49299,"ELEMENT_SET_NO":999,"REV_AT_EPOCH":23492,"BSTAR":-0.00021711628,"MEAN_MOTION_DOT":-7.5e-7,"MEAN_MOTION_DDOT":0},{"OBJECT_NAME":"ONEWEB-0374","OBJECT_ID":"2021-090X","EPOCH":"2026-07-17T04:26:45.600864","CLASSIFICATION_TYPE":"U","MEAN_MOTION":13.14503274,"ECCENTRICITY":0.0001538,"INCLINATION":87.897,"RA_OF_ASC_NODE":283.7218,"ARG_OF_PERICENTER":88.3682,"MEAN_ANOMALY":271.7624,"EPHEMERIS_TYPE":0,"NORAD_CAT_ID":49300,"ELEMENT_SET_NO":999,"REV_AT_EPOCH":23150,"BSTAR":-0.00039010003,"MEAN_MOTION_DOT":-0.00000132,"MEAN_MOTION_DDOT":0},{"OBJECT_NAME":"ONEWEB-0375","OBJECT_ID":"2021-090Y","EPOCH":"2026-07-16T17:18:07.984800","CLASSIFICATION_TYPE":"U","MEAN_MOTION":13.20772792,"ECCENTRICITY":0.00016342,"INCLINATION":87.9187,"RA_OF_ASC_NODE":268.5488,"ARG_OF_PERICENTER":87.1363,"MEAN_ANOMALY":272.9958,"EPHEMERIS_TYPE":0,"NORAD_CAT_ID":49301,"ELEMENT_SET_NO":999,"REV_AT_EPOCH":23442,"BSTAR":-0.00015743902,"MEAN_MOTION_DOT":-5.1e-7,"MEAN_MOTION_DDOT":0},{"OBJECT_NAME":"ONEWEB-0376","OBJECT_ID":"2021-090Z","EPOCH":"2026-07-17T06:54:03.537216","CLASSIFICATION_TYPE":"U","MEAN_MOTION":13.19727179,"ECCENTRICITY":0.00021155,"INCLINATION":87.9193,"RA_OF_ASC_NODE":298.9742,"ARG_OF_PERICENTER":106.2633,"MEAN_ANOMALY":253.8732,"EPHEMERIS_TYPE":0,"NORAD_CAT_ID":49302,"ELEMENT_SET_NO":999,"REV_AT_EPOCH":23042,"BSTAR":0.000090998761,"MEAN_MOTION_DOT":4.9e-7,"MEAN_MOTION_DDOT":0},{"OBJECT_NAME":"ONEWEB-0377","OBJECT_ID":"2021-090AA","EPOCH":"2026-07-16T16:58:53.930496","CLASSIFICATION_TYPE":"U","MEAN_MOTION":13.20792686,"ECCENTRICITY":0.00020616,"INCLINATION":87.9183,"RA_OF_ASC_NODE":268.5539,"ARG_OF_PERICENTER":93.1783,"MEAN_ANOMALY":266.9586,"EPHEMERIS_TYPE":0,"NORAD_CAT_ID":49303,"ELEMENT_SET_NO":999,"REV_AT_EPOCH":23441,"BSTAR":0.0057526718,"MEAN_MOTION_DOT":0.00002353,"MEAN_MOTION_DDOT":0},{"OBJECT_NAME":"ONEWEB-0378","OBJECT_ID":"2021-090AB","EPOCH":"2026-07-17T04:22:35.366592","CLASSIFICATION_TYPE":"U","MEAN_MOTION":13.20772072,"ECCENTRICITY":0.00019095,"INCLINATION":87.918,"RA_OF_ASC_NODE":268.4626,"ARG_OF_PERICENTER":97.7553,"MEAN_ANOMALY":262.3797,"EPHEMERIS_TYPE":0,"NORAD_CAT_ID":49304,"ELEMENT_SET_NO":999,"REV_AT_EPOCH":23374,"BSTAR":0.00000513331,"MEAN_MOTION_DOT":1.5e-7,"MEAN_MOTION_DDOT":0},{"OBJECT_NAME":"ONEWEB-0379","OBJECT_ID":"2021-090AC","EPOCH":"2026-07-17T04:19:55.205184","CLASSIFICATION_TYPE":"U","MEAN_MOTION":13.1450266,"ECCENTRICITY":0.00019127,"INCLINATION":87.8968,"RA_OF_ASC_NODE":283.7326,"ARG_OF_PERICENTER":98.328,"MEAN_ANOMALY":261.8067,"EPHEMERIS_TYPE":0,"NORAD_CAT_ID":49305,"ELEMENT_SET_NO":999,"REV_AT_EPOCH":23150,"BSTAR":-0.00030084309,"MEAN_MOTION_DOT":-9.9e-7,"MEAN_MOTION_DDOT":0},{"OBJECT_NAME":"ONEWEB-0380","OBJECT_ID":"2021-090AD","EPOCH":"2026-07-16T19:54:28.182240","CLASSIFICATION_TYPE":"U","MEAN_MOTION":13.19726611,"ECCENTRICITY":0.00019838,"INCLINATION":87.9186,"RA_OF_ASC_NODE":299.0688,"ARG_OF_PERICENTER":95.1079,"MEAN_ANOMALY":265.028,"EPHEMERIS_TYPE":0,"NORAD_CAT_ID":49306,"ELEMENT_SET_NO":999,"REV_AT_EPOCH":23033,"BSTAR":-0.00010000103,"MEAN_MOTION_DOT":-2.7e-7,"MEAN_MOTION_DDOT":0},{"OBJECT_NAME":"ONEWEB-0381","OBJECT_ID":"2021-090AE","EPOCH":"2026-07-16T16:53:52.708992","CLASSIFICATION_TYPE":"U","MEAN_MOTION":13.20770195,"ECCENTRICITY":0.00018376,"INCLINATION":87.9184,"RA_OF_ASC_NODE":268.559,"ARG_OF_PERICENTER":93.9457,"MEAN_ANOMALY":266.1886,"EPHEMERIS_TYPE":0,"NORAD_CAT_ID":49307,"ELEMENT_SET_NO":999,"REV_AT_EPOCH":23372,"BSTAR":-0.000060151528,"MEAN_MOTION_DOT":-1.1e-7,"MEAN_MOTION_DDOT":0},{"OBJECT_NAME":"ONEWEB-0382","OBJECT_ID":"2021-090AF","EPOCH":"2026-07-17T03:29:03.336864","CLASSIFICATION_TYPE":"U","MEAN_MOTION":13.20772156,"ECCENTRICITY":0.00017985,"INCLINATION":87.9184,"RA_OF_ASC_NODE":268.465,"ARG_OF_PERICENTER":97.0834,"MEAN_ANOMALY":263.0504,"EPHEMERIS_TYPE":0,"NORAD_CAT_ID":49308,"ELEMENT_SET_NO":999,"REV_AT_EPOCH":23377,"BSTAR":0.00018848693,"MEAN_MOTION_DOT":9e-7,"MEAN_MOTION_DDOT":0},{"OBJECT_NAME":"ONEWEB-0383","OBJECT_ID":"2021-090AG","EPOCH":"2026-07-17T04:10:47.163936","CLASSIFICATION_TYPE":"U","MEAN_MOTION":13.14503054,"ECCENTRICITY":0.00018848,"INCLINATION":87.8974,"RA_OF_ASC_NODE":283.726,"ARG_OF_PERICENTER":102.1366,"MEAN_ANOMALY":257.9975,"EPHEMERIS_TYPE":0,"NORAD_CAT_ID":49309,"ELEMENT_SET_NO":999,"REV_AT_EPOCH":23153,"BSTAR":0.000003553667,"MEAN_MOTION_DOT":1.4e-7,"MEAN_MOTION_DDOT":0},{"OBJECT_NAME":"ONEWEB-0384","OBJECT_ID":"2021-090AH","EPOCH":"2026-07-17T03:11:19.703616","CLASSIFICATION_TYPE":"U","MEAN_MOTION":13.2081492,"ECCENTRICITY":0.00016145,"INCLINATION":87.9185,"RA_OF_ASC_NODE":268.5115,"ARG_OF_PERICENTER":100.2252,"MEAN_ANOMALY":259.9064,"EPHEMERIS_TYPE":0,"NORAD_CAT_ID":49310,"ELEMENT_SET_NO":999,"REV_AT_EPOCH":23378,"BSTAR":0.00025934202,"MEAN_MOTION_DOT":0.00000118,"MEAN_MOTION_DDOT":0},{"OBJECT_NAME":"ONEWEB-0385","OBJECT_ID":"2021-090AJ","EPOCH":"2026-07-17T03:19:20.606880","CLASSIFICATION_TYPE":"U","MEAN_MOTION":13.20770518,"ECCENTRICITY":0.00019294,"INCLINATION":87.9185,"RA_OF_ASC_NODE":268.4718,"ARG_OF_PERICENTER":96.8717,"MEAN_ANOMALY":263.2636,"EPHEMERIS_TYPE":0,"NORAD_CAT_ID":49311,"ELEMENT_SET_NO":999,"REV_AT_EPOCH":23375,"BSTAR":0.00032675625,"MEAN_MOTION_DOT":0.00000146,"MEAN_MOTION_DDOT":0},{"OBJECT_NAME":"ONEWEB-0386","OBJECT_ID":"2021-090AK","EPOCH":"2026-07-17T03:43:34.156416","CLASSIFICATION_TYPE":"U","MEAN_MOTION":13.20773593,"ECCENTRICITY":0.0001834,"INCLINATION":87.9186,"RA_OF_ASC_NODE":268.4605,"ARG_OF_PERICENTER":98.6714,"MEAN_ANOMALY":261.4627,"EPHEMERIS_TYPE":0,"NORAD_CAT_ID":49312,"ELEMENT_SET_NO":999,"REV_AT_EPOCH":23377,"BSTAR":0.00021776072,"MEAN_MOTION_DOT":0.00000102,"MEAN_MOTION_DDOT":0}]}
